ONEWEB-0056             
1 45159U 20008AE  25348.27846882 -.00000527  00000+0 -15453-2 0  9996
2 45159  87.8810  73.1229 0001527 110.0806 250.0486 13.10376024283963
ONEWEB-0057             
1 45160U 20008AF  25348.28608264 -.00000153  00000+0 -47514-3 0  9998
2 45160  87.8812  73.1344 0001786 111.0449 249.0869 13.10375605284133
ONEWEB-0058             
1 45161U 20008AG  25348.27279459 -.00000655  00000+0 -19132-2 0  9999
2 45161  87.8807  73.1480 0001677  95.5796 264.5522 13.10372854284208
ONEWEB-0059             
1 45162U 20008AH  25348.26933720 -.00001134  00000+0 -32866-2 0  9999
2 45162  87.8806  73.1488 0001703 102.4321 257.6997 13.10366410284107
ONEWEB-0062             
1 45163U 20008AJ  25348.29507653  .00000344  00000+0  95023-3 0  9990
2 45163  87.8814  73.1194 0001611  87.5429 272.5883 13.10375906283975
ONEWEB-0065             
1 45164U 20008AK  25348.32567356  .00000074  00000+0  17616-3 0  9993
2 45164  87.8803  73.1289 0001682 117.8156 242.3142 13.10370182283672
ONEWEB-0066             
1 45424U 20020A   25348.20332923  .00000195  00000+0  51399-3 0  9993
2 45424  87.8862  57.8995 0001996 104.1126 256.0224 13.11413368278439
ONEWEB-0067             
1 45425U 20020B   25348.16446261 -.00000153  00000+0 -46633-3 0  9991
2 45425  87.8871  57.8108 0001823 105.9833 254.1496 13.11418694278481
